[{"OBJECT_NAME":"HXMT (HUIYAN)","OBJECT_ID":"2017-034A","EPOCH":"2026-03-14T23:27:34.336800","MEAN_MOTION":15.1754856,"ECCENTRICITY":0.00332798,"INCLINATION":43.0162,"RA_OF_ASC_NODE":347.2746,"ARG_OF_PERICENTER":268.0891,"MEAN_ANOMALY":91.6145,"EPHEMERIS_TYPE":0,"CLASSIFICATION_TYPE":"U","NORAD_CAT_ID":42758,"ELEMENT_SET_NO":999,"REV_AT_EPOCH":48334,"BSTAR":0.00038404944,"MEAN_MOTION_DOT":7.727e-5,"MEAN_MOTION_DDOT":0},{"OBJECT_NAME":"SAOCOM 1A","OBJECT_ID":"2018-076A","EPOCH":"2026-03-14T23:00:41.325696","MEAN_MOTION":14.82149675,"ECCENTRICITY":0.00014876,"INCLINATION":97.8899,"RA_OF_ASC_NODE":262.0569,"ARG_OF_PERICENTER":85.4709,"MEAN_ANOMALY":274.6674,"EPHEMERIS_TYPE":0,"CLASSIFICATION_TYPE":"U","NORAD_CAT_ID":43641,"ELEMENT_SET_NO":999,"REV_AT_EPOCH":40214,"BSTAR":0.0001648338,"MEAN_MOTION_DOT":1.26e-5,"MEAN_MOTION_DDOT":0},{"OBJECT_NAME":"H-2A R/B","OBJECT_ID":"2018-084L","EPOCH":"2026-03-14T20:39:52.159968","MEAN_MOTION":15.41592354,"ECCENTRICITY":0.00250302,"INCLINATION":98.8732,"RA_OF_ASC_NODE":292.3549,"ARG_OF_PERICENTER":7.6201,"MEAN_ANOMALY":352.5416,"EPHEMERIS_TYPE":0,"CLASSIFICATION_TYPE":"U","NORAD_CAT_ID":43682,"ELEMENT_SET_NO":999,"REV_AT_EPOCH":40657,"BSTAR":0.00058901692,"MEAN_MOTION_DOT":0.00024986,"MEAN_MOTION_DDOT":0},{"OBJECT_NAME":"SAOCOM 1B","OBJECT_ID":"2020-059A","EPOCH":"2026-03-14T01:04:39.385920","MEAN_MOTION":14.82151938,"ECCENTRICITY":0.00013837,"INCLINATION":97.8899,"RA_OF_ASC_NODE":260.2532,"ARG_OF_PERICENTER":84.3427,"MEAN_ANOMALY":275.7944,"EPHEMERIS_TYPE":0,"CLASSIFICATION_TYPE":"U","NORAD_CAT_ID":46265,"ELEMENT_SET_NO":999,"REV_AT_EPOCH":29939,"BSTAR":2.6755151e-5,"MEAN_MOTION_DOT":1.61e-6,"MEAN_MOTION_DDOT":0},{"OBJECT_NAME":"CSS (TIANHE)","OBJECT_ID":"2021-035A","EPOCH":"2026-03-14T00:03:53.258400","MEAN_MOTION":15.6090469,"ECCENTRICITY":0.0006689,"INCLINATION":41.4663,"RA_OF_ASC_NODE":181.9138,"ARG_OF_PERICENTER":299.3968,"MEAN_ANOMALY":60.6202,"EPHEMERIS_TYPE":0,"CLASSIFICATION_TYPE":"U","NORAD_CAT_ID":48274,"ELEMENT_SET_NO":999,"REV_AT_EPOCH":27828,"BSTAR":0.00034787289,"MEAN_MOTION_DOT":0.00029757,"MEAN_MOTION_DDOT":0},{"OBJECT_NAME":"CZ-2C R/B","OBJECT_ID":"2022-058K","EPOCH":"2026-03-14T21:53:32.047008","MEAN_MOTION":15.54640389,"ECCENTRICITY":0.0041986,"INCLINATION":50.1886,"RA_OF_ASC_NODE":291.4176,"ARG_OF_PERICENTER":223.0671,"MEAN_ANOMALY":136.7011,"EPHEMERIS_TYPE":0,"CLASSIFICATION_TYPE":"U","NORAD_CAT_ID":52794,"ELEMENT_SET_NO":999,"REV_AT_EPOCH":21094,"BSTAR":0.00060630575,"MEAN_MOTION_DOT":0.00042289,"MEAN_MOTION_DDOT":0},{"OBJECT_NAME":"CZ-2C R/B","OBJECT_ID":"2022-132E","EPOCH":"2026-03-14T22:40:31.974528","MEAN_MOTION":15.62383426,"ECCENTRICITY":0.00201192,"INCLINATION":97.2958,"RA_OF_ASC_NODE":77.4234,"ARG_OF_PERICENTER":74.9219,"MEAN_ANOMALY":285.4264,"EPHEMERIS_TYPE":0,"CLASSIFICATION_TYPE":"U","NORAD_CAT_ID":54039,"ELEMENT_SET_NO":999,"REV_AT_EPOCH":19119,"BSTAR":0.00062700736,"MEAN_MOTION_DOT":0.00056218,"MEAN_MOTION_DDOT":0},{"OBJECT_NAME":"GSLV R/B","OBJECT_ID":"2022-138AN","EPOCH":"2026-03-14T16:02:01.506336","MEAN_MOTION":14.96816336,"ECCENTRICITY":0.00235408,"INCLINATION":87.3879,"RA_OF_ASC_NODE":164.6963,"ARG_OF_PERICENTER":129.9189,"MEAN_ANOMALY":230.4117,"EPHEMERIS_TYPE":0,"CLASSIFICATION_TYPE":"U","NORAD_CAT_ID":54149,"ELEMENT_SET_NO":999,"REV_AT_EPOCH":18467,"BSTAR":0.00037421857,"MEAN_MOTION_DOT":4.336e-5,"MEAN_MOTION_DDOT":0},{"OBJECT_NAME":"XRISM","OBJECT_ID":"2023-137A","EPOCH":"2026-03-14T18:59:37.936320","MEAN_MOTION":15.11563689,"ECCENTRICITY":0.00079264,"INCLINATION":31.0009,"RA_OF_ASC_NODE":250.6638,"ARG_OF_PERICENTER":89.8559,"MEAN_ANOMALY":270.2988,"EPHEMERIS_TYPE":0,"CLASSIFICATION_TYPE":"U","NORAD_CAT_ID":57800,"ELEMENT_SET_NO":999,"REV_AT_EPOCH":13856,"BSTAR":0.00040564317,"MEAN_MOTION_DOT":7.155e-5,"MEAN_MOTION_DDOT":0},{"OBJECT_NAME":"ACS3","OBJECT_ID":"2024-077B","EPOCH":"2026-03-14T19:49:08.973984","MEAN_MOTION":13.89878315,"ECCENTRICITY":0.00643979,"INCLINATION":97.2035,"RA_OF_ASC_NODE":13.7831,"ARG_OF_PERICENTER":64.3072,"MEAN_ANOMALY":296.4724,"EPHEMERIS_TYPE":0,"CLASSIFICATION_TYPE":"U","NORAD_CAT_ID":59588,"ELEMENT_SET_NO":999,"REV_AT_EPOCH":9491,"BSTAR":0.026158683,"MEAN_MOTION_DOT":0.00032826,"MEAN_MOTION_DDOT":0},{"OBJECT_NAME":"SZ-21 MODULE","OBJECT_ID":"2025-246C","EPOCH":"2026-03-14T14:14:26.593440","MEAN_MOTION":15.68965402,"ECCENTRICITY":9.103e-5,"INCLINATION":41.4735,"RA_OF_ASC_NODE":173.1648,"ARG_OF_PERICENTER":309.7124,"MEAN_ANOMALY":50.3637,"EPHEMERIS_TYPE":0,"CLASSIFICATION_TYPE":"U","NORAD_CAT_ID":66515,"ELEMENT_SET_NO":999,"REV_AT_EPOCH":1884,"BSTAR":0.00041125442,"MEAN_MOTION_DOT":0.00048778,"MEAN_MOTION_DDOT":0}]
