HXMT (HUIYAN)           
1 42758U 17034A   26073.97748075  .00007727  00000+0  38405-3 0  9991
2 42758  43.0162 347.2746 0033279 268.0891  91.6145 15.17548560483345
SAOCOM 1A               
1 43641U 18076A   26073.95881164  .00001260  00000+0  16483-3 0  9993
2 43641  97.8899 262.0569 0001487  85.4709 274.6674 14.82149675402147
H-2A R/B                
1 43682U 18084L   26073.86102037  .00024986  00000+0  58902-3 0  9994
2 43682  98.8732 292.3549 0025030   7.6201 352.5416 15.41592354406579
SAOCOM 1B               
1 46265U 20059A   26073.04490030  .00000161  00000+0  26755-4 0  9993
2 46265  97.8899 260.2532 0001383  84.3427 275.7944 14.82151938299390
CSS (TIANHE)            
1 48274U 21035A   26073.00269975  .00029757  00000+0  34787-3 0  9993
2 48274  41.4663 181.9138 0006689 299.3968  60.6202 15.60904690278280
CZ-2C R/B               
1 52794U 22058K   26073.91217647  .00042289  00000+0  60631-3 0  9992
2 52794  50.1886 291.4176 0041986 223.0671 136.7011 15.54640389210946
CZ-2C R/B               
1 54039U 22132E   26073.94481452  .00056218  00000+0  62701-3 0  9996
2 54039  97.2958  77.4234 0020119  74.9219 285.4264 15.62383426191197
GSLV R/B                
1 54149U 22138AN  26073.66807299  .00004336  00000+0  37422-3 0  9990
2 54149  87.3879 164.6963 0023540 129.9189 230.4117 14.96816336184676
XRISM                   
1 57800U 23137A   26073.79141130  .00007155  00000+0  40564-3 0  9999
2 57800  31.0009 250.6638 0007926  89.8559 270.2988 15.11563689138567
ACS3                    
1 59588U 24077B   26073.82579831  .00032826  00000+0  26159-1 0  9990
2 59588  97.2035  13.7831 0064397  64.3072 296.4724 13.89878315 94917
SZ-21 MODULE            
1 66515U 25246C   26073.59336335  .00048778  00000+0  41125-3 0  9996
2 66515  41.4735 173.1648 0000910 309.7124  50.3637 15.68965402 18846
